{"type": "FeatureCollection", "features": [ {"type": "Feature", "properties": {"norad_id": 34141, "name": "COSMOS 2251 DEB", "group": "cosmos-2251-debris", "lat": -35.326521425751935, "lon": 16.358309658954997, "alt_km": 763.4127426921787, "timestamp": "2025-12-13T03:42:11.665894+00:00", "meta": {"OBJECT_NAME": "COSMOS 2251 DEB", "OBJECT_ID": "1993-036LN", "EPOCH": "2025-12-12T03:10:02.075808", "MEAN_MOTION": 14.49232545, "ECCENTRICITY": 0.00472576, "INCLINATION": 74.0112, "RA_OF_ASC_NODE": 30.0026, "ARG_OF_PERICENTER": 116.5052, "MEAN_ANOMALY": 275.2538, "EPHEMERIS_TYPE": 0, "CLASSIFICATION_TYPE": "U", "NORAD_CAT_ID": 34141, "ELEMENT_SET_NO": 999, "REV_AT_EPOCH": 87685, "BSTAR": 0.0022924592, "MEAN_MOTION_DOT": 8.845e-05, "MEAN_MOTION_DDOT": 0}, "tle": {"line1": "1 34141U 93036LN  25346.13196847  .00008845  00000+0  22925-2 0  9999", "line2": "2 34141  74.0112  30.0026 0047257 116.5052 275.2538 14.49232545876851"}}, "geometry": {"type": "Point", "coordinates": [16.358309658954997, -35.326521425751935]}}, {"type": "Feature", "properties": {"norad_id": 34270, "name": "COSMOS 2251 DEB", "group": "cosmos-2251-debris", "lat": -53.47810043177688, "lon": -76.94952866487996, "alt_km": 713.7333086603621, "timestamp": "2025-12-13T03:42:11.665904+00:00", "meta": {"OBJECT_NAME": "COSMOS 2251 DEB", "OBJECT_ID": "1993-036LQ", "EPOCH": "2025-12-12T06:39:35.261280", "MEAN_MOTION": 14.65162944, "ECCENTRICITY": 0.00477871, "INCLINATION": 74.0115, "RA_OF_ASC_NODE": 307.5177, "ARG_OF_PERICENTER": 100.4366, "MEAN_ANOMALY": 260.2193, "EPHEMERIS_TYPE": 0, "CLASSIFICATION_TYPE": "U", "NORAD_CAT_ID": 34270, "ELEMENT_SET_NO": 999, "REV_AT_EPOCH": 89089, "BSTAR": 0.0012240976, "MEAN_MOTION_DOT": 6.67e-05, "MEAN_MOTION_DDOT": 0}, "tle": {"line1": "1 34270U 93036LQ  25346.27749145  .00006670  00000+0  12241-2 0  9996", "line2": "2 34270  74.0115 307.5177 0047787 100.4366 260.2193 14.65162944890898"}}, "geometry": {"type": "Point", "coordinates": [-76.94952866487996, -53.47810043177688]}}, {"type": "Feature", "properties": {"norad_id": 34271, "name": "COSMOS 2251 DEB", "group": "cosmos-2251-debris", "lat": -70.04918636289341, "lon": 70.65266036159205, "alt_km": 652.3136467942322, "timestamp": "2025-12-13T03:42:11.665915+00:00", "meta": {"OBJECT_NAME": "COSMOS 2251 DEB", "OBJECT_ID": "1993-036LR", "EPOCH": "2025-12-12T00:58:38.627904", "MEAN_MOTION": 14.70736042, "ECCENTRICITY": 0.0018858, "INCLINATION": 74.0204, "RA_OF_ASC_NODE": 200.6858, "ARG_OF_PERICENTER": 254.8683, "MEAN_ANOMALY": 229.3614, "EPHEMERIS_TYPE": 0, "CLASSIFICATION_TYPE": "U", "NORAD_CAT_ID": 34271, "ELEMENT_SET_NO": 999, "REV_AT_EPOCH": 88224, "BSTAR": 0.0028463, "MEAN_MOTION_DOT": 0.0001742, "MEAN_MOTION_DDOT": 0}, "tle": {"line1": "1 34271U 93036LR  25346.04072486  .00017420  00000+0  28463-2 0  9997", "line2": "2 34271  74.0204 200.6858 0018858 254.8683 229.3614 14.70736042882246"}}, "geometry": {"type": "Point", "coordinates": [70.65266036159205, -70.04918636289341]}}, {"type": "Feature", "properties": {"norad_id": 34273, "name": "COSMOS 2251 DEB", "group": "cosmos-2251-debris", "lat": -72.72427167333285, "lon": -26.37096236124022, "alt_km": 689.8494824209283, "timestamp": "2025-12-13T03:42:11.665925+00:00", "meta": {"OBJECT_NAME": "COSMOS 2251 DEB", "OBJECT_ID": "1993-036LT", "EPOCH": "2025-12-12T02:08:39.901344", "MEAN_MOTION": 14.61217928, "ECCENTRICITY": 0.00141162, "INCLINATION": 74.0355, "RA_OF_ASC_NODE": 88.6706, "ARG_OF_PERICENTER": 214.6471, "MEAN_ANOMALY": 208.7688, "EPHEMERIS_TYPE": 0, "CLASSIFICATION_TYPE": "U", "NORAD_CAT_ID": 34273, "ELEMENT_SET_NO": 999, "REV_AT_EPOCH": 88612, "BSTAR": 0.0016199096, "MEAN_MOTION_DOT": 7.975e-05, "MEAN_MOTION_DDOT": 0}, "tle": {"line1": "1 34273U 93036LT  25346.08935071  .00007975  00000+0  16199-2 0  9998", "line2": "2 34273  74.0355  88.6706 0014116 214.6471 208.7688 14.61217928886123"}}, "geometry": {"type": "Point", "coordinates": [-26.37096236124022, -72.72427167333285]}}, {"type": "Feature", "properties": {"norad_id": 34274, "name": "COSMOS 2251 DEB", "group": "cosmos-2251-debris", "lat": -8.870749664253847, "lon": 65.20344454735692, "alt_km": 692.097718293362, "timestamp": "2025-12-13T03:42:11.665935+00:00", "meta": {"OBJECT_NAME": "COSMOS 2251 DEB", "OBJECT_ID": "1993-036LU", "EPOCH": "2025-12-12T06:41:36.032928", "MEAN_MOTION": 14.64779208, "ECCENTRICITY": 0.00220445, "INCLINATION": 74.0044, "RA_OF_ASC_NODE": 69.4552, "ARG_OF_PERICENTER": 219.4955, "MEAN_ANOMALY": 196.8506, "EPHEMERIS_TYPE": 0, "CLASSIFICATION_TYPE": "U", "NORAD_CAT_ID": 34274, "ELEMENT_SET_NO": 999, "REV_AT_EPOCH": 88669, "BSTAR": 0.0018879572, "MEAN_MOTION_DOT": 0.00010087, "MEAN_MOTION_DDOT": 0}, "tle": {"line1": "1 34274U 93036LU  25346.27888927  .00010087  00000+0  18880-2 0  9994", "line2": "2 34274  74.0044  69.4552 0022044 219.4955 196.8506 14.64779208886699"}}, "geometry": {"type": "Point", "coordinates": [65.20344454735692, -8.870749664253847]}}, {"type": "Feature", "properties": {"norad_id": 34276, "name": "COSMOS 2251 DEB", "group": "cosmos-2251-debris", "lat": -72.50666705966283, "lon": 19.163863833310415, "alt_km": 697.9521761483993, "timestamp": "2025-12-13T03:42:11.665946+00:00", "meta": {"OBJECT_NAME": "COSMOS 2251 DEB", "OBJECT_ID": "1993-036LW", "EPOCH": "2025-12-12T06:45:59.391360", "MEAN_MOTION": 14.57225068, "ECCENTRICITY": 0.00225955, "INCLINATION": 74.0233, "RA_OF_ASC_NODE": 86.1909, "ARG_OF_PERICENTER": 232.9767, "MEAN_ANOMALY": 149.4764, "EPHEMERIS_TYPE": 0, "CLASSIFICATION_TYPE": "U", "NORAD_CAT_ID": 34276, "ELEMENT_SET_NO": 999, "REV_AT_EPOCH": 88586, "BSTAR": 0.001332092, "MEAN_MOTION_DOT": 6.015e-05, "MEAN_MOTION_DDOT": 0}, "tle": {"line1": "1 34276U 93036LW  25346.28193740  .00006015  00000+0  13321-2 0  9990", "line2": "2 34276  74.0233  86.1909 0022595 232.9767 149.4764 14.57225068885865"}}, "geometry": {"type": "Point", "coordinates": [19.163863833310415, -72.50666705966283]}}, {"type": "Feature", "properties": {"norad_id": 34297, "name": "COSMOS 2251 DEB", "group": "cosmos-2251-debris", "lat": -70.31442998502183, "lon": 156.5473946532419, "alt_km": 777.3523902880161, "timestamp": "2025-12-13T03:42:11.665956+00:00", "meta": {"OBJECT_NAME": "COSMOS 2251 DEB", "OBJECT_ID": "1993-036MT", "EPOCH": "2025-12-12T06:59:29.235840", "MEAN_MOTION": 14.36628731, "ECCENTRICITY": 0.00172694, "INCLINATION": 74.0487, "RA_OF_ASC_NODE": 285.0556, "ARG_OF_PERICENTER": 353.747, "MEAN_ANOMALY": 123.273, "EPHEMERIS_TYPE": 0, "CLASSIFICATION_TYPE": "U", "NORAD_CAT_ID": 34297, "ELEMENT_SET_NO": 999, "REV_AT_EPOCH": 88058, "BSTAR": 0.00023769211, "MEAN_MOTION_DOT": 6.74e-06, "MEAN_MOTION_DDOT": 0}, "tle": {"line1": "1 34297U 93036MT  25346.29131060  .00000674  00000+0  23769-3 0  9994", "line2": "2 34297  74.0487 285.0556 0017269 353.7470 123.2730 14.36628731880580"}}, "geometry": {"type": "Point", "coordinates": [156.5473946532419, -70.31442998502183]}}, {"type": "Feature", "properties": {"norad_id": 34299, "name": "COSMOS 2251 DEB", "group": "cosmos-2251-debris", "lat": -6.685769093821343, "lon": -28.3348991803857, "alt_km": 345.1378584010472, "timestamp": "2025-12-13T03:42:11.665966+00:00", "meta": {"OBJECT_NAME": "COSMOS 2251 DEB", "OBJECT_ID": "1993-036MV", "EPOCH": "2025-12-12T00:15:10.948032", "MEAN_MOTION": 15.71721272, "ECCENTRICITY": 0.0019867, "INCLINATION": 73.9778, "RA_OF_ASC_NODE": 336.1995, "ARG_OF_PERICENTER": 58.1064, "MEAN_ANOMALY": 302.2089, "EPHEMERIS_TYPE": 0, "CLASSIFICATION_TYPE": "U", "NORAD_CAT_ID": 34299, "ELEMENT_SET_NO": 999, "REV_AT_EPOCH": 88999, "BSTAR": 0.0068656, "MEAN_MOTION_DOT": 0.00987514, "MEAN_MOTION_DDOT": 0}, "tle": {"line1": "1 34299U 93036MV  25346.01054338  .00987514  00000+0  68656-2 0  9998", "line2": "2 34299  73.9778 336.1995 0019867  58.1064 302.2089 15.71721272889993"}}, "geometry": {"type": "Point", "coordinates": [-28.3348991803857, -6.685769093821343]}}, {"type": "Feature", "properties": {"norad_id": 34301, "name": "COSMOS 2251 DEB", "group": "cosmos-2251-debris", "lat": -72.92010819617084, "lon": 96.88498554116084, "alt_km": 616.9056386731372, "timestamp": "2025-12-13T03:42:11.665976+00:00", "meta": {"OBJECT_NAME": "COSMOS 2251 DEB", "OBJECT_ID": "1993-036MX", "EPOCH": "2025-12-11T23:31:07.335264", "MEAN_MOTION": 14.84486311, "ECCENTRICITY": 0.0011164, "INCLINATION": 74.0055, "RA_OF_ASC_NODE": 168.2112, "ARG_OF_PERICENTER": 228.3097, "MEAN_ANOMALY": 254.1754, "EPHEMERIS_TYPE": 0, "CLASSIFICATION_TYPE": "U", "NORAD_CAT_ID": 34301, "ELEMENT_SET_NO": 999, "REV_AT_EPOCH": 88389, "BSTAR": 0.0041118, "MEAN_MOTION_DOT": 0.00034825, "MEAN_MOTION_DDOT": 0}, "tle": {"line1": "1 34301U 93036MX  25345.97994601  .00034825  00000+0  41118-2 0  9994", "line2": "2 34301  74.0055 168.2112 0011164 228.3097 254.1754 14.84486311883893"}}, "geometry": {"type": "Point", "coordinates": [96.88498554116084, -72.92010819617084]}}, {"type": "Feature", "properties": {"norad_id": 34302, "name": "COSMOS 2251 DEB", "group": "cosmos-2251-debris", "lat": -59.29707703790157, "lon": 94.29733511538214, "alt_km": 724.9623325203065, "timestamp": "2025-12-13T03:42:11.665987+00:00", "meta": {"OBJECT_NAME": "COSMOS 2251 DEB", "OBJECT_ID": "1993-036MY", "EPOCH": "2025-12-12T04:53:51.964224", "MEAN_MOTION": 14.39328492, "ECCENTRICITY": 0.00787888, "INCLINATION": 74.1778, "RA_OF_ASC_NODE": 124.5602, "ARG_OF_PERICENTER": 339.9165, "MEAN_ANOMALY": 75.6981, "EPHEMERIS_TYPE": 0, "CLASSIFICATION_TYPE": "U", "NORAD_CAT_ID": 34302, "ELEMENT_SET_NO": 999, "REV_AT_EPOCH": 87713, "BSTAR": 0.0010049599, "MEAN_MOTION_DOT": 3.213e-05, "MEAN_MOTION_DDOT": 0}, "tle": {"line1": "1 34302U 93036MY  25346.20407366  .00003213  00000+0  10050-2 0  9997", "line2": "2 34302  74.1778 124.5602 0078788 339.9165  75.6981 14.39328492877139"}}, "geometry": {"type": "Point", "coordinates": [94.29733511538214, -59.29707703790157]}}]}